ORBCOMM FM33            
1 25983U 99065D   24325.06177348  .00002763  00000+0  93383-3 0  9994
2 25983  45.0282 272.4665 0007816  78.8014 281.3714 14.38909967306003
ORBCOMM FM36            
1 25984U 99065E   24325.16788624  .00002838  00000+0  99587-3 0  9996
2 25984  45.0404   0.6699 0005014 307.5730  52.4663 14.36989096304932
ORBCOMM FM35            
1 25985U 99065F   24324.45307738  .00001548  00000+0  57406-3 0  9992
2 25985  45.0412   7.5550 0001627  37.8621 322.2341 14.36188764304813
ORBCOMM FM34            
1 25986U 99065G   24325.46804865  .00001686  00000+0  62061-3 0  9994
2 25986  45.0409   3.2997 0003761 342.5989  17.4729 14.36221116304926
ORBCOMM FM38            
1 33060U 08031A   24324.86513073  .00003801  00000+0  53001-3 0  9995
2 33060  48.4398 231.5908 0005658 216.1086 143.9447 14.79557683883732
ORBCOMM FM41            
1 33061U 08031B   24325.18024991  .00003769  00000+0  53008-3 0  9998
2 33061  48.4433 237.1995 0004835 203.5562 309.3125 14.79210201883717
ORBCOMM FM29            
1 33062U 08031C   24324.88890057  .00004447  00000+0  61993-3 0  9995
2 33062  48.4383 246.5846 0006477 201.7666 235.1232 14.79227415883147
ORBCOMM FM39            
1 33063U 08031D   24324.37573635  .00003026  00000+0  44349-3 0  9998
2 33063  48.4404 271.1467 0007133 175.1100 184.9885 14.77987105882749
